OBJECT_NAME,OBJECT_ID,EPOCH,MEAN_MOTION,ECCENTRICITY,INCLINATION,RA_OF_ASC_NODE,ARG_OF_PERICENTER,MEAN_ANOMALY,EPHEMERIS_TYPE,CLASSIFICATION_TYPE,NORAD_CAT_ID,ELEMENT_SET_NO,REV_AT_EPOCH,BSTAR,MEAN_MOTION_DOT,MEAN_MOTION_DDOT
HAWK-5A,2022-057AB,2026-06-30T09:26:35.088288,15.51850030,.00046122,97.6616,341.0985,33.5271,326.6272,0,U,52757,999,22839,.27979657E-3,.16657E-3,0
HAWK-6B,2023-011A,2026-06-30T16:35:25.887840,15.23048173,.0001792,40.4988,273.3033,149.8350,210.2563,0,U,55324,999,18990,.18362E-3,.4222E-4,0
HAWK-6C,2023-011C,2026-06-30T15:00:06.418656,15.23044685,.0002207,40.4972,270.5261,126.2153,233.8861,0,U,55326,999,18990,.17683E-3,.4058E-4,0
HAWK-6A,2023-011D,2026-06-30T15:00:09.601632,15.23045470,.0001786,40.4982,272.1518,123.3883,236.7097,0,U,55327,999,18990,.18045E-3,.4145E-4,0
HAWK-7A,2023-054P,2026-06-30T17:41:03.890112,15.27498238,.0003125,97.2687,68.7301,25.0184,335.1206,0,U,56191,999,17909,.2061E-3,.5473E-4,0
HAWK-7B,2023-054R,2026-06-30T17:40:58.015776,15.27496908,.0002824,97.2714,66.9987,43.6817,316.4646,0,U,56193,999,17909,.20945E-3,.5563E-4,0
HAWK-7C,2023-054Y,2026-06-30T17:40:47.966592,15.27496279,.000258,97.2691,67.7630,32.6891,327.4508,0,U,56200,999,17909,.20524E-3,.5449E-4,0
