HAWK-5A                 
1 52757U 22057AB  26181.39346167  .00016657  00000+0  27980-3 0  9992
2 52757  97.6616 341.0985 0004612  33.5271 326.6272 15.51850030228397
HAWK-6B                 
1 55324U 23011A   26181.69127185  .00004222  00000+0  18362-3 0  9995
2 55324  40.4988 273.3033 0001792 149.8350 210.2563 15.23048173189904
HAWK-6C                 
1 55326U 23011C   26181.62507429  .00004058  00000+0  17683-3 0  9995
2 55326  40.4972 270.5261 0002207 126.2153 233.8861 15.23044685189909
HAWK-6A                 
1 55327U 23011D   26181.62511113  .00004145  00000+0  18045-3 0  9991
2 55327  40.4982 272.1518 0001786 123.3883 236.7097 15.23045470189909
HAWK-7A                 
1 56191U 23054P   26181.73685058  .00005473  00000+0  20610-3 0  9996
2 56191  97.2687  68.7301 0003125  25.0184 335.1206 15.27498238179094
HAWK-7B                 
1 56193U 23054R   26181.73678259  .00005563  00000+0  20945-3 0  9994
2 56193  97.2714  66.9987 0002824  43.6817 316.4646 15.27496908179093
HAWK-7C                 
1 56200U 23054Y   26181.73666628  .00005449  00000+0  20524-3 0  9996
2 56200  97.2691  67.7630 0002580  32.6891 327.4508 15.27496279179099
